{
 "generated_at": "2026-06-16T10:08:45Z",
 "sources": [
  {
   "name": "CelesTrak",
   "url": "https://celestrak.org/NORAD/elements/",
   "license": "frei verfügbar; Attribution. Ursprünglich USSPACECOM/Space-Track."
  },
  {
   "name": "GCAT (J. McDowell, planet4589.org)",
   "url": "https://planet4589.org/space/gcat/",
   "license": "CC-BY 4.0"
  }
 ],
 "satellites": [
  {
   "norad": 40275,
   "name": "YAOGAN-22",
   "intl": "2014-063A",
   "group": "resource",
   "gcat": {
    "class": null,
    "category": null,
    "owner": null,
    "state": null
   },
   "omm": {
    "OBJECT_NAME": "YAOGAN-22",
    "OBJECT_ID": "2014-063A",
    "EPOCH": "2026-06-16T02:54:12.100896",
    "MEAN_MOTION": 13.15531105,
    "ECCENTRICITY": 0.000632,
    "INCLINATION": 100.7722,
    "RA_OF_ASC_NODE": 318.3764,
    "ARG_OF_PERICENTER": 187.694,
    "MEAN_ANOMALY": 172.4075,
    "EPHEMERIS_TYPE": 0,
    "CLASSIFICATION_TYPE": "U",
    "NORAD_CAT_ID": 40275,
    "ELEMENT_SET_NO": 999,
    "REV_AT_EPOCH": 55967,
    "BSTAR": -0.000017597,
    "MEAN_MOTION_DOT": -5.3e-7,
    "MEAN_MOTION_DDOT": 0
   }
  },
  {
   "norad": 40310,
   "name": "YAOGAN-24",
   "intl": "2014-072A",
   "group": "resource",
   "gcat": {
    "class": "D",
    "category": "IMG",
    "owner": "ZZB",
    "state": "CN"
   },
   "omm": {
    "OBJECT_NAME": "YAOGAN-24",
    "OBJECT_ID": "2014-072A",
    "EPOCH": "2026-06-16T04:49:21.254880",
    "MEAN_MOTION": 14.76220699,
    "ECCENTRICITY": 0.0012533,
    "INCLINATION": 98.1486,
    "RA_OF_ASC_NODE": 304.5301,
    "ARG_OF_PERICENTER": 267.0001,
    "MEAN_ANOMALY": 92.9774,
    "EPHEMERIS_TYPE": 0,
    "CLASSIFICATION_TYPE": "U",
    "NORAD_CAT_ID": 40310,
    "ELEMENT_SET_NO": 999,
    "REV_AT_EPOCH": 62357,
    "BSTAR": 0.000050818,
    "MEAN_MOTION_DOT": 0.00000299,
    "MEAN_MOTION_DDOT": 0
   }
  },
  {
   "norad": 40362,
   "name": "YAOGAN-26",
   "intl": "2014-088A",
   "group": "resource",
   "gcat": {
    "class": "D",
    "category": "IMG",
    "owner": "ZZB",
    "state": "CN"
   },
   "omm": {
    "OBJECT_NAME": "YAOGAN-26",
    "OBJECT_ID": "2014-088A",
    "EPOCH": "2026-06-16T03:55:27.905088",
    "MEAN_MOTION": 15.47315794,
    "ECCENTRICITY": 0.0006086,
    "INCLINATION": 97.0634,
    "RA_OF_ASC_NODE": 167.3968,
    "ARG_OF_PERICENTER": 68.8925,
    "MEAN_ANOMALY": 291.2976,
    "EPHEMERIS_TYPE": 0,
    "CLASSIFICATION_TYPE": "U",
    "NORAD_CAT_ID": 40362,
    "ELEMENT_SET_NO": 999,
    "REV_AT_EPOCH": 63754,
    "BSTAR": 0.00037868,
    "MEAN_MOTION_DOT": 0.00019273,
    "MEAN_MOTION_DDOT": 0
   }
  },
  {
   "norad": 40878,
   "name": "YAOGAN-27",
   "intl": "2015-040A",
   "group": "resource",
   "gcat": {
    "class": "D",
    "category": "IMG",
    "owner": "ZZB",
    "state": "CN"
   },
   "omm": {
    "OBJECT_NAME": "YAOGAN-27",
    "OBJECT_ID": "2015-040A",
    "EPOCH": "2026-06-16T04:36:57.477024",
    "MEAN_MOTION": 13.16068439,
    "ECCENTRICITY": 0.0007647,
    "INCLINATION": 100.1143,
    "RA_OF_ASC_NODE": 153.6181,
    "ARG_OF_PERICENTER": 212.9716,
    "MEAN_ANOMALY": 147.0921,
    "EPHEMERIS_TYPE": 0,
    "CLASSIFICATION_TYPE": "U",
    "NORAD_CAT_ID": 40878,
    "ELEMENT_SET_NO": 999,
    "REV_AT_EPOCH": 51753,
    "BSTAR": -0.00048591,
    "MEAN_MOTION_DOT": -0.00000227,
    "MEAN_MOTION_DDOT": 0
   }
  },
  {
   "norad": 41026,
   "name": "YAOGAN-28",
   "intl": "2015-064A",
   "group": "resource",
   "gcat": {
    "class": "D",
    "category": "IMG",
    "owner": "ZZB",
    "state": "CN"
   },
   "omm": {
    "OBJECT_NAME": "YAOGAN-28",
    "OBJECT_ID": "2015-064A",
    "EPOCH": "2026-06-16T05:01:01.355808",
    "MEAN_MOTION": 15.2740974,
    "ECCENTRICITY": 0.0010521,
    "INCLINATION": 97.3077,
    "RA_OF_ASC_NODE": 305.4901,
    "ARG_OF_PERICENTER": 186.6148,
    "MEAN_ANOMALY": 173.4954,
    "EPHEMERIS_TYPE": 0,
    "CLASSIFICATION_TYPE": "U",
    "NORAD_CAT_ID": 41026,
    "ELEMENT_SET_NO": 999,
    "REV_AT_EPOCH": 59053,
    "BSTAR": 0.0002092,
    "MEAN_MOTION_DOT": 0.00005548,
    "MEAN_MOTION_DDOT": 0
   }
  },
  {
   "norad": 41038,
   "name": "YAOGAN-29",
   "intl": "2015-069A",
   "group": "resource",
   "gcat": {
    "class": "D",
    "category": "IMG-R",
    "owner": "ZZB",
    "state": "CN"
   },
   "omm": {
    "OBJECT_NAME": "YAOGAN-29",
    "OBJECT_ID": "2015-069A",
    "EPOCH": "2026-06-16T05:35:53.630304",
    "MEAN_MOTION": 14.83083889,
    "ECCENTRICITY": 0.0002627,
    "INCLINATION": 98.0023,
    "RA_OF_ASC_NODE": 195.8643,
    "ARG_OF_PERICENTER": 56.0452,
    "MEAN_ANOMALY": 304.1011,
    "EPHEMERIS_TYPE": 0,
    "CLASSIFICATION_TYPE": "U",
    "NORAD_CAT_ID": 41038,
    "ELEMENT_SET_NO": 999,
    "REV_AT_EPOCH": 57048,
    "BSTAR": 0.000044204,
    "MEAN_MOTION_DOT": 0.00000306,
    "MEAN_MOTION_DDOT": 0
   }
  },
  {
   "norad": 32289,
   "name": "YAOGAN-3",
   "intl": "2007-055A",
   "group": "resource",
   "gcat": {
    "class": null,
    "category": null,
    "owner": null,
    "state": null
   },
   "omm": {
    "OBJECT_NAME": "YAOGAN-3",
    "OBJECT_ID": "2007-055A",
    "EPOCH": "2026-06-16T04:30:14.428800",
    "MEAN_MOTION": 14.90781167,
    "ECCENTRICITY": 0.0002005,
    "INCLINATION": 97.8154,
    "RA_OF_ASC_NODE": 197.0753,
    "ARG_OF_PERICENTER": 83.3836,
    "MEAN_ANOMALY": 276.761,
    "EPHEMERIS_TYPE": 0,
    "CLASSIFICATION_TYPE": "U",
    "NORAD_CAT_ID": 32289,
    "ELEMENT_SET_NO": 999,
    "REV_AT_EPOCH": 572,
    "BSTAR": 0.00021094,
    "MEAN_MOTION_DOT": 0.00002018,
    "MEAN_MOTION_DDOT": 0
   }
  },
  {
   "norad": 33446,
   "name": "YAOGAN-4",
   "intl": "2008-061A",
   "group": "resource",
   "gcat": {
    "class": null,
    "category": null,
    "owner": null,
    "state": null
   },
   "omm": {
    "OBJECT_NAME": "YAOGAN-4",
    "OBJECT_ID": "2008-061A",
    "EPOCH": "2026-06-16T02:06:16.516224",
    "MEAN_MOTION": 14.83198263,
    "ECCENTRICITY": 0.0015742,
    "INCLINATION": 97.9308,
    "RA_OF_ASC_NODE": 100.606,
    "ARG_OF_PERICENTER": 75.7139,
    "MEAN_ANOMALY": 284.5821,
    "EPHEMERIS_TYPE": 0,
    "CLASSIFICATION_TYPE": "U",
    "NORAD_CAT_ID": 33446,
    "ELEMENT_SET_NO": 999,
    "REV_AT_EPOCH": 94550,
    "BSTAR": 0.00010834,
    "MEAN_MOTION_DOT": 0.00000832,
    "MEAN_MOTION_DDOT": 0
   }
  },
  {
   "norad": 36110,
   "name": "YAOGAN-7",
   "intl": "2009-069A",
   "group": "resource",
   "gcat": {
    "class": null,
    "category": null,
    "owner": null,
    "state": null
   },
   "omm": {
    "OBJECT_NAME": "YAOGAN-7",
    "OBJECT_ID": "2009-069A",
    "EPOCH": "2026-06-16T03:23:02.036256",
    "MEAN_MOTION": 14.78008967,
    "ECCENTRICITY": 0.0025625,
    "INCLINATION": 98.0073,
    "RA_OF_ASC_NODE": 53.0144,
    "ARG_OF_PERICENTER": 44.9471,
    "MEAN_ANOMALY": 315.3808,
    "EPHEMERIS_TYPE": 0,
    "CLASSIFICATION_TYPE": "U",
    "NORAD_CAT_ID": 36110,
    "ELEMENT_SET_NO": 999,
    "REV_AT_EPOCH": 88947,
    "BSTAR": 0.000064953,
    "MEAN_MOTION_DOT": 0.00000418,
    "MEAN_MOTION_DDOT": 0
   }
  },
  {
   "norad": 38038,
   "name": "ZIYUAN 1-02C (ZY 1-02C)",
   "intl": "2011-079A",
   "group": "resource",
   "gcat": {
    "class": null,
    "category": null,
    "owner": null,
    "state": null
   },
   "omm": {
    "OBJECT_NAME": "ZIYUAN 1-02C (ZY 1-02C)",
    "OBJECT_ID": "2011-079A",
    "EPOCH": "2026-06-16T04:12:52.415424",
    "MEAN_MOTION": 14.38214057,
    "ECCENTRICITY": 0.0005539,
    "INCLINATION": 98.4078,
    "RA_OF_ASC_NODE": 234.505,
    "ARG_OF_PERICENTER": 320.3023,
    "MEAN_ANOMALY": 124.6314,
    "EPHEMERIS_TYPE": 0,
    "CLASSIFICATION_TYPE": "U",
    "NORAD_CAT_ID": 38038,
    "ELEMENT_SET_NO": 999,
    "REV_AT_EPOCH": 75906,
    "BSTAR": 0.00012378,
    "MEAN_MOTION_DOT": 0.00000333,
    "MEAN_MOTION_DDOT": 0
   }
  }
 ]
}
